[{"OBJECT_NAME":"THEA","OBJECT_ID":"2018-099AQ","EPOCH":"2026-03-09T22:33:02.658240","MEAN_MOTION":15.31454284,"ECCENTRICITY":0.00065849,"INCLINATION":97.4542,"RA_OF_ASC_NODE":137.8815,"ARG_OF_PERICENTER":275.4664,"MEAN_ANOMALY":84.5826,"EPHEMERIS_TYPE":0,"CLASSIFICATION_TYPE":"U","NORAD_CAT_ID":43796,"ELEMENT_SET_NO":999,"REV_AT_EPOCH":39748,"BSTAR":0.00074635274,"MEAN_MOTION_DOT":0.00022649,"MEAN_MOTION_DDOT":0},{"OBJECT_NAME":"STARLINK-32050","OBJECT_ID":"2024-120C","EPOCH":"2026-03-09T23:10:55.595136","MEAN_MOTION":15.30175967,"ECCENTRICITY":0.0001062,"INCLINATION":53.1611,"RA_OF_ASC_NODE":318.9878,"ARG_OF_PERICENTER":74.8602,"MEAN_ANOMALY":285.2516,"EPHEMERIS_TYPE":0,"CLASSIFICATION_TYPE":"U","NORAD_CAT_ID":60137,"ELEMENT_SET_NO":999,"REV_AT_EPOCH":9641,"BSTAR":6.0217874e-5,"MEAN_MOTION_DOT":1.424e-5,"MEAN_MOTION_DDOT":0}]
